INNOSAT 3 (RS92S0)      
1 64894U 25155U   26178.22743000  .00041413  00000+0  88996-3 0  9996
2 64894  97.4480 149.9679 0007802 128.4462 231.7488 15.44530332 82513
KNACKSAT-2              
1 67683U 98067XZ  26177.89305214  .00046488  00000+0  54854-3 0  9993
2 67683  51.6279 245.6263 0008661 259.0293 100.9727 15.60825200 21795
