OBJECT_NAME,OBJECT_ID,EPOCH,MEAN_MOTION,ECCENTRICITY,INCLINATION,RA_OF_ASC_NODE,ARG_OF_PERICENTER,MEAN_ANOMALY,EPHEMERIS_TYPE,CLASSIFICATION_TYPE,NORAD_CAT_ID,ELEMENT_SET_NO,REV_AT_EPOCH,BSTAR,MEAN_MOTION_DOT,MEAN_MOTION_DDOT
INNOSAT 3 (RS92S0),2025-155U,2026-06-27T05:27:29.952000,15.44530332,.00078025,97.4480,149.9679,128.4462,231.7488,0,U,64894,999,8251,.88995674E-3,.41413E-3,0
KNACKSAT-2,1998-067XZ,2026-06-26T21:25:59.704896,15.60825200,.00086615,51.6279,245.6263,259.0293,100.9727,0,U,67683,999,2179,.5485367E-3,.46488E-3,0
